[{"OBJECT_NAME":"OBJECT A","OBJECT_ID":"2024-018A","EPOCH":"2026-03-09T23:31:34.722336","MEAN_MOTION":14.39019523,"ECCENTRICITY":0.04318583,"INCLINATION":58.6872,"RA_OF_ASC_NODE":217.3493,"ARG_OF_PERICENTER":349.6639,"MEAN_ANOMALY":9.5713,"EPHEMERIS_TYPE":0,"CLASSIFICATION_TYPE":"U","NORAD_CAT_ID":58849,"ELEMENT_SET_NO":999,"REV_AT_EPOCH":11089,"BSTAR":0.00018648837,"MEAN_MOTION_DOT":1.516e-5,"MEAN_MOTION_DDOT":0},{"OBJECT_NAME":"STARLINK-35387","OBJECT_ID":"2025-224AD","EPOCH":"2026-03-09T23:24:46.997280","MEAN_MOTION":15.30207114,"ECCENTRICITY":0.00010117,"INCLINATION":53.1607,"RA_OF_ASC_NODE":10.3269,"ARG_OF_PERICENTER":99.2822,"MEAN_ANOMALY":260.8294,"EPHEMERIS_TYPE":0,"CLASSIFICATION_TYPE":"U","NORAD_CAT_ID":65909,"ELEMENT_SET_NO":999,"REV_AT_EPOCH":2486,"BSTAR":0.0010077245,"MEAN_MOTION_DOT":0.00029612,"MEAN_MOTION_DDOT":0}]
